{
    "links": {
        "self": "http://www.neowsapp.com/rest/v1/neo/3843639?api_key=iIulBulltgU6a56xZRHN4H3l9WmuAYTsLGpBGhQ2"
    },
    "id": "3843639",
    "neo_reference_id": "3843639",
    "name": "(2019 QE4)",
    "designation": "2019 QE4",
    "nasa_jpl_url": "http://ssd.jpl.nasa.gov/sbdb.cgi?sstr=3843639",
    "absolute_magnitude_h": 24.3,
    "estimated_diameter": {
        "kilometers": {
            "estimated_diameter_min": 0.0366906138,
            "estimated_diameter_max": 0.0820427065
        },
        "meters": {
            "estimated_diameter_min": 36.6906137531,
            "estimated_diameter_max": 82.0427064882
        },
        "miles": {
            "estimated_diameter_min": 0.0227984834,
            "estimated_diameter_max": 0.0509789586
        },
        "feet": {
            "estimated_diameter_min": 120.3760332259,
            "estimated_diameter_max": 269.1689931548
        }
    },
    "is_potentially_hazardous_asteroid": false,
    "close_approach_data": [
        {
            "close_approach_date": "2019-08-13",
            "close_approach_date_full": "2019-Aug-13 10:58",
            "epoch_date_close_approach": 1565693880000,
            "relative_velocity": {
                "kilometers_per_second": "10.3513001874",
                "kilometers_per_hour": "37264.6806746144",
                "miles_per_hour": "23154.8233891792"
            },
            "miss_distance": {
                "astronomical": "0.0693731251",
                "lunar": "26.9861456639",
                "kilometers": "10378071.750203537",
                "miles": "6448634.7584093306"
            },
            "orbiting_body": "Earth"
        }
    ],
    "orbital_data": {
        "orbit_id": "2",
        "orbit_determination_date": "2019-09-02 05:59:13",
        "first_observation_date": "2019-08-27",
        "last_observation_date": "2019-09-02",
        "data_arc_in_days": 6,
        "observations_used": 30,
        "orbit_uncertainty": "8",
        "minimum_orbit_intersection": ".00667497",
        "jupiter_tisserand_invariant": "5.051",
        "epoch_osculation": "2458723.5",
        "eccentricity": ".3395041039778548",
        "semi_major_axis": "1.253035342046151",
        "inclination": "13.19701015378756",
        "ascending_node_longitude": "326.2262284470608",
        "orbital_period": "512.3224742146806",
        "perihelion_distance": ".8276247009921878",
        "perihelion_argument": "284.1960813863036",
        "aphelion_distance": "1.678445983100114",
        "perihelion_time": "2458652.900771393478",
        "mean_anomaly": "49.60883735835852",
        "mean_motion": ".7026824278045387",
        "equinox": "J2000",
        "orbit_class": {
            "orbit_class_type": "APO",
            "orbit_class_description": "Near-Earth asteroid orbits which cross the Earth’s orbit similar to that of 1862 Apollo",
            "orbit_class_range": "a (semi-major axis) > 1.0 AU; q (perihelion) < 1.017 AU"
        }
    },
    "is_sentry_object": false
}